     2              NAVIGATION DATA                         RINEX VERSION / TYPE
CCRINEXN V1.6.0 UX  CDDIS               26-MAY-16 15:33     PGM / RUN BY / DATE 
IGS BROADCAST EPHEMERIS FILE                                COMMENT             
    0.1024D-07  0.2235D-07 -0.5960D-07 -0.1192D-06          ION ALPHA           
    0.9626D+05  0.1311D+06 -0.6554D+05 -0.5898D+06          ION BETA            
    0.186264514923D-08 0.355271367880D-14   503808     1898 DELTA-UTC: A0,A1,T,W
    17                                                      LEAP SECONDS        
                                                            END OF HEADER       
20 16  5 25 22  0  0.0 0.414459966123D-03 0.238742359215D-11 0.000000000000D+00
    0.920000000000D+02 0.165000000000D+02 0.560951951556D-08 0.222455296858D+01
    0.707805156708D-06 0.457824580371D-02 0.560097396374D-05 0.515373233032D+04
    0.338400000000D+06 0.912696123123D-07-0.120318059648D+01-0.372529029846D-07
    0.925877331124D+00 0.251718750000D+03 0.137345410240D+01-0.849142534065D-08
    0.126790994370D-09 0.100000000000D+01 0.189800000000D+04 0.000000000000D+00
    0.200000000000D+01 0.000000000000D+00-0.838190317154D-08 0.920000000000D+02
    0.331200000000D+06 0.000000000000D+00 0.000000000000D+00 0.000000000000D+00
21 16  5 25 22  0  0.0-0.523846130818D-03-0.125055521494D-11 0.000000000000D+00
    0.103000000000D+03-0.267812500000D+02 0.508342603081D-08-0.818366965069D+00
   -0.131689012051D-05 0.233666965505D-01 0.108256936073D-04 0.515361529159D+04
    0.338400000000D+06-0.316649675369D-06-0.219363079661D+01 0.320374965668D-06
    0.936303309820D+00 0.160156250000D+03-0.178911232284D+01-0.858607193007D-08
    0.250724729406D-09 0.000000000000D+00 0.189800000000D+04 0.000000000000D+00
    0.200000000000D+01 0.000000000000D+00-0.102445483208D-07 0.103000000000D+03
    0.331200000000D+06 0.400000000000D+01 0.000000000000D+00 0.000000000000D+00
22 16  5 25 22  0  0.0 0.334549695253D-03-0.829913915368D-11 0.000000000000D+00
    0.670000000000D+02 0.125625000000D+02 0.562630578679D-08 0.259922161567D+01
    0.523403286934D-06 0.767900340725D-02 0.576116144657D-05 0.515381063652D+04
    0.338400000000D+06 0.596046447754D-07-0.115068790663D+01-0.949949026108D-07
    0.922524905128D+00 0.243687500000D+03-0.191836712140D+01-0.840392148563D-08
    0.832177520677D-10 0.100000000000D+01 0.189800000000D+04 0.000000000000D+00
    0.200000000000D+01 0.000000000000D+00-0.176951289177D-07 0.670000000000D+02
    0.331200000000D+06 0.400000000000D+01 0.000000000000D+00 0.000000000000D+00
23 16  5 25 22  0  0.0-0.175352673978D-03-0.159161572810D-11 0.000000000000D+00
    0.810000000000D+02-0.590625000000D+01 0.481770067657D-08 0.171365344445D+01
   -0.257045030594D-06 0.109329200350D-01 0.856071710587D-05 0.515367294121D+04
    0.338400000000D+06-0.175088644028D-06-0.737393118126D-01 0.316649675369D-07
    0.946354123173D+00 0.210562500000D+03-0.257465905581D+01-0.816534011919D-08
   -0.559309011751D-09 0.000000000000D+00 0.189800000000D+04 0.000000000000D+00
    0.200000000000D+01 0.000000000000D+00-0.200234353542D-07 0.810000000000D+02
    0.335370000000D+06 0.400000000000D+01 0.000000000000D+00 0.000000000000D+00
24 16  5 25 22  0  0.0-0.176210887730D-04-0.568434188608D-12 0.000000000000D+00
    0.150000000000D+02 0.936875000000D+02 0.454947521819D-08 0.113670598224D+01
    0.466592609882D-05 0.441629288252D-02 0.873580574989D-05 0.515362319565D+04
    0.338400000000D+06-0.167638063431D-07 0.951642035139D+00 0.391155481338D-07
    0.949604863197D+00 0.205375000000D+03 0.416012891761D+00-0.807283626603D-08
    0.200008331150D-10 0.100000000000D+01 0.189800000000D+04 0.000000000000D+00
    0.200000000000D+01 0.000000000000D+00 0.232830643654D-08 0.150000000000D+02
    0.333426000000D+06 0.400000000000D+01 0.000000000000D+00 0.000000000000D+00
26 16  5 25 22  0  0.0-0.375764910132D-03-0.120508047985D-10 0.000000000000D+00
    0.760000000000D+02 0.416875000000D+02 0.485234497679D-08-0.170311356149D+01
    0.189617276192D-05 0.103024637792D-02 0.210478901863D-05 0.515376207161D+04
    0.338400000000D+06 0.335276126862D-07 0.201548522171D+01-0.409781932831D-07
    0.960310573773D+00 0.337593750000D+03 0.190778094879D+00-0.850106838933D-08
    0.237509893240D-09 0.000000000000D+00 0.189800000000D+04 0.000000000000D+00
    0.280000000000D+01 0.000000000000D+00 0.698491930962D-08 0.760000000000D+02
    0.331200000000D+06 0.400000000000D+01 0.000000000000D+00 0.000000000000D+00
27 16  5 25 22  0  0.0 0.963965430856D-04 0.409272615798D-11 0.000000000000D+00
    0.770000000000D+02-0.107625000000D+03 0.438518266046D-08 0.302917415934D+01
   -0.560097396374D-05 0.367204868235D-02 0.582635402679D-05 0.515364589882D+04
    0.338400000000D+06-0.894069671631D-07 0.306575781696D+01 0.186264514923D-08
    0.971646382183D+00 0.274468750000D+03 0.282721556968D+00-0.803212028434D-08
   -0.201794119821D-09 0.000000000000D+00 0.189800000000D+04 0.000000000000D+00
    0.200000000000D+01 0.000000000000D+00 0.139698386192D-08 0.770000000000D+02
    0.331200000000D+06 0.400000000000D+01 0.000000000000D+00 0.000000000000D+00
28 16  5 25 22  0  0.0 0.525562558323D-03 0.272848410532D-11 0.000000000000D+00
    0.640000000000D+02 0.179062500000D+02 0.403802534282D-08-0.247011764981D+01
    0.102818012237D-05 0.197338158032D-01 0.193715095520D-05 0.515363008308D+04
    0.338400000000D+06 0.219792127609D-06 0.209909354127D+01 0.203028321266D-06
    0.989353334880D+00 0.350562500000D+03-0.161642386247D+01-0.776925219197D-08
    0.285011871889D-09 0.100000000000D+01 0.189800000000D+04 0.000000000000D+00
    0.200000000000D+01 0.000000000000D+00-0.111758708954D-07 0.640000000000D+02
    0.331218000000D+06 0.400000000000D+01 0.000000000000D+00 0.000000000000D+00
29 16  5 25 22  0  0.0 0.657094642520D-03-0.113686837722D-12 0.000000000000D+00
    0.560000000000D+02-0.115937500000D+03 0.429732185785D-08-0.934840440017D+00
   -0.589340925217D-05 0.960284960456D-03 0.669807195664D-05 0.515357222366D+04
    0.338400000000D+06 0.409781932831D-07 0.312534062705D+01 0.782310962677D-07
    0.977685381160D+00 0.260593750000D+03-0.242648525205D+00-0.803962059675D-08
   -0.166792661870D-09 0.000000000000D+00 0.189800000000D+04 0.000000000000D+00
    0.200000000000D+01 0.000000000000D+00-0.102445483208D-07 0.560000000000D+02
    0.331200000000D+06 0.400000000000D+01 0.000000000000D+00 0.000000000000D+00
30 16  5 25 22  0  0.0 0.128135550767D-03 0.295585778076D-11 0.000000000000D+00
    0.860000000000D+02 0.879062500000D+02 0.447590072494D-08 0.336630420271D+00
    0.466033816338D-05 0.209439767059D-02 0.829249620438D-05 0.515360630417D+04
    0.338400000000D+06 0.521540641785D-07 0.104296089704D+01 0.186264514923D-08
    0.952248859410D+00 0.215312500000D+03 0.300853232673D+01-0.807783647431D-08
    0.173935816554D-09 0.100000000000D+01 0.189800000000D+04 0.000000000000D+00
    0.200000000000D+01 0.000000000000D+00 0.325962901115D-08 0.860000000000D+02
    0.331218000000D+06 0.400000000000D+01 0.000000000000D+00 0.000000000000D+00
31 16  5 25 22  0  0.0 0.267184339464D-03-0.193267624127D-11 0.000000000000D+00
    0.700000000000D+02 0.995937500000D+02 0.407374111624D-08 0.785037170806D-01
    0.528991222382D-05 0.817595073022D-02 0.920705497265D-05 0.515375719833D+04
    0.338400000000D+06 0.540167093277D-07 0.100813590687D+01-0.104308128357D-06
    0.971301595799D+00 0.202906250000D+03-0.397408602669D+00-0.797640367780D-08
    0.152863510236D-09 0.000000000000D+00 0.189800000000D+04 0.000000000000D+00
    0.200000000000D+01 0.000000000000D+00-0.135041773319D-07 0.700000000000D+02
    0.331200000000D+06 0.400000000000D+01 0.000000000000D+00 0.000000000000D+00
32 16  5 25 22  0  0.0-0.120722688734D-04-0.670752342558D-11 0.000000000000D+00
    0.780000000000D+02-0.875000000000D+00 0.437732519031D-08-0.291784543373D+01
    0.186264514923D-08 0.383907230571D-03 0.877119600773D-05 0.515360859299D+04
    0.338400000000D+06 0.372529029846D-08-0.776168420130D-01 0.707805156708D-07
    0.960015220853D+00 0.210718750000D+03-0.234337985008D+01-0.785104131310D-08
   -0.396445084958D-09 0.000000000000D+00 0.189800000000D+04 0.000000000000D+00
    0.280000000000D+01 0.000000000000D+00 0.465661287308D-09 0.780000000000D+02
    0.331200000000D+06 0.400000000000D+01 0.000000000000D+00 0.000000000000D+00
 1 16  5 25 23 59 44.0 0.215447507799D-04 0.125055521494D-11 0.000000000000D+00
    0.200000000000D+01-0.481250000000D+02 0.435410993758D-08 0.197773741924D+01
   -0.238418579102D-05 0.546349049546D-02 0.108908861876D-04 0.515365253639D+04
    0.345584000000D+06-0.163912773132D-06-0.216016935582D+01 0.104308128357D-06
    0.964306478916D+00 0.172937500000D+03 0.459712890967D+00-0.782461164077D-08
    0.312513017422D-09 0.000000000000D+00 0.189800000000D+04 0.000000000000D+00
    0.200000000000D+01 0.000000000000D+00 0.512227416039D-08 0.200000000000D+01
    0.343470000000D+06 0.400000000000D+01 0.000000000000D+00 0.000000000000D+00
 8 16  5 25 23 59 44.0-0.365176238120D-04-0.147792889038D-11 0.000000000000D+00
    0.300000000000D+01-0.111031250000D+03 0.463519307440D-08-0.131096235432D+01
   -0.578910112381D-05 0.174560130108D-02 0.594928860664D-05 0.515369780731D+04
    0.345584000000D+06-0.726431608200D-07 0.306301553898D+01 0.316649675369D-07
    0.963552442661D+00 0.269843750000D+03-0.110664223598D+01-0.820605610089D-08
   -0.164649715464D-09 0.000000000000D+00 0.189800000000D+04 0.000000000000D+00
    0.200000000000D+01 0.000000000000D+00 0.465661287308D-08 0.300000000000D+01
    0.343950000000D+06 0.400000000000D+01 0.000000000000D+00 0.000000000000D+00
